[{"OBJECT_NAME":"STARLINK-30104","OBJECT_ID":"2023-056Q","EPOCH":"2025-08-17T07:19:16.694112","MEAN_MOTION":15.02522063,"ECCENTRICITY":0.0001195,"INCLINATION":43.0026,"RA_OF_ASC_NODE":240.4726,"ARG_OF_PERICENTER":271.1743,"MEAN_ANOMALY":88.8962,"EPHEMERIS_TYPE":0,"CLASSIFICATION_TYPE":"U","NORAD_CAT_ID":56300,"ELEMENT_SET_NO":999,"REV_AT_EPOCH":12934,"BSTAR":-0.00012505,"MEAN_MOTION_DOT":-1.892e-5,"MEAN_MOTION_DDOT":0},{"OBJECT_NAME":"STARLINK-30101","OBJECT_ID":"2023-056R","EPOCH":"2025-08-17T08:02:24.739584","MEAN_MOTION":15.0254072,"ECCENTRICITY":0.0001414,"INCLINATION":43.0017,"RA_OF_ASC_NODE":240.6774,"ARG_OF_PERICENTER":290.6844,"MEAN_ANOMALY":69.3847,"EPHEMERIS_TYPE":0,"CLASSIFICATION_TYPE":"U","NORAD_CAT_ID":56301,"ELEMENT_SET_NO":999,"REV_AT_EPOCH":12934,"BSTAR":-2.1988e-5,"MEAN_MOTION_DOT":-5.01e-6,"MEAN_MOTION_DDOT":0},{"OBJECT_NAME":"STARLINK-30111","OBJECT_ID":"2023-056S","EPOCH":"2025-08-17T09:28:31.958112","MEAN_MOTION":15.02534802,"ECCENTRICITY":0.0001219,"INCLINATION":43.002,"RA_OF_ASC_NODE":240.2032,"ARG_OF_PERICENTER":279.0591,"MEAN_ANOMALY":81.0113,"EPHEMERIS_TYPE":0,"CLASSIFICATION_TYPE":"U","NORAD_CAT_ID":56302,"ELEMENT_SET_NO":999,"REV_AT_EPOCH":12935,"BSTAR":2.563e-5,"MEAN_MOTION_DOT":1.43e-6,"MEAN_MOTION_DDOT":0},{"OBJECT_NAME":"STARLINK-30099","OBJECT_ID":"2023-056U","EPOCH":"2025-08-17T07:48:00.194400","MEAN_MOTION":15.02533806,"ECCENTRICITY":0.0001454,"INCLINATION":43.002,"RA_OF_ASC_NODE":240.5278,"ARG_OF_PERICENTER":281.1768,"MEAN_ANOMALY":78.8911,"EPHEMERIS_TYPE":0,"CLASSIFICATION_TYPE":"U","NORAD_CAT_ID":56304,"ELEMENT_SET_NO":999,"REV_AT_EPOCH":12934,"BSTAR":4.9441e-5,"MEAN_MOTION_DOT":4.64e-6,"MEAN_MOTION_DDOT":0},{"OBJECT_NAME":"STARLINK-30094","OBJECT_ID":"2023-056V","EPOCH":"2025-08-17T09:18:56.258496","MEAN_MOTION":15.02562212,"ECCENTRICITY":0.0001714,"INCLINATION":43.0024,"RA_OF_ASC_NODE":240.1305,"ARG_OF_PERICENTER":262.8641,"MEAN_ANOMALY":97.2006,"EPHEMERIS_TYPE":0,"CLASSIFICATION_TYPE":"U","NORAD_CAT_ID":56305,"ELEMENT_SET_NO":999,"REV_AT_EPOCH":12935,"BSTAR":-0.00065769,"MEAN_MOTION_DOT":-9.083e-5,"MEAN_MOTION_DDOT":0},{"OBJECT_NAME":"STARLINK-30112","OBJECT_ID":"2023-056W","EPOCH":"2025-08-17T07:57:36.137664","MEAN_MOTION":15.0253521,"ECCENTRICITY":0.0001267,"INCLINATION":43.0019,"RA_OF_ASC_NODE":240.5873,"ARG_OF_PERICENTER":278.6234,"MEAN_ANOMALY":81.4465,"EPHEMERIS_TYPE":0,"CLASSIFICATION_TYPE":"U","NORAD_CAT_ID":56306,"ELEMENT_SET_NO":999,"REV_AT_EPOCH":12934,"BSTAR":-5.531e-5,"MEAN_MOTION_DOT":-9.51e-6,"MEAN_MOTION_DDOT":0},{"OBJECT_NAME":"STARLINK-6038","OBJECT_ID":"2023-058A","EPOCH":"2025-08-17T14:06:01.322784","MEAN_MOTION":15.0125189,"ECCENTRICITY":0.0001375,"INCLINATION":97.6521,"RA_OF_ASC_NODE":230.2507,"ARG_OF_PERICENTER":109.8294,"MEAN_ANOMALY":250.3078,"EPHEMERIS_TYPE":0,"CLASSIFICATION_TYPE":"U","NORAD_CAT_ID":56317,"ELEMENT_SET_NO":999,"REV_AT_EPOCH":12715,"BSTAR":9.0693e-6,"MEAN_MOTION_DOT":5.8e-7,"MEAN_MOTION_DDOT":0},{"OBJECT_NAME":"STARLINK-5954","OBJECT_ID":"2023-058B","EPOCH":"2025-08-17T14:00:41.121792","MEAN_MOTION":15.01256991,"ECCENTRICITY":0.00013,"INCLINATION":97.6531,"RA_OF_ASC_NODE":230.2517,"ARG_OF_PERICENTER":120.1277,"MEAN_ANOMALY":240.0076,"EPHEMERIS_TYPE":0,"CLASSIFICATION_TYPE":"U","NORAD_CAT_ID":56318,"ELEMENT_SET_NO":999,"REV_AT_EPOCH":12715,"BSTAR":-4.3305e-5,"MEAN_MOTION_DOT":-6.15e-6,"MEAN_MOTION_DDOT":0},{"OBJECT_NAME":"STARLINK-6039","OBJECT_ID":"2023-058C","EPOCH":"2025-08-17T13:58:01.371648","MEAN_MOTION":15.01255092,"ECCENTRICITY":0.0001771,"INCLINATION":97.6531,"RA_OF_ASC_NODE":230.2534,"ARG_OF_PERICENTER":145.9464,"MEAN_ANOMALY":214.1874,"EPHEMERIS_TYPE":0,"CLASSIFICATION_TYPE":"U","NORAD_CAT_ID":56319,"ELEMENT_SET_NO":999,"REV_AT_EPOCH":12715,"BSTAR":-6.0095e-5,"MEAN_MOTION_DOT":-8.31e-6,"MEAN_MOTION_DDOT":0},{"OBJECT_NAME":"STARLINK-5988","OBJECT_ID":"2023-058D","EPOCH":"2025-08-17T14:06:23.874048","MEAN_MOTION":15.01261344,"ECCENTRICITY":0.0002298,"INCLINATION":97.653,"RA_OF_ASC_NODE":230.252,"ARG_OF_PERICENTER":142.0587,"MEAN_ANOMALY":218.0799,"EPHEMERIS_TYPE":0,"CLASSIFICATION_TYPE":"U","NORAD_CAT_ID":56320,"ELEMENT_SET_NO":999,"REV_AT_EPOCH":12716,"BSTAR":1.4694e-5,"MEAN_MOTION_DOT":1.3e-6,"MEAN_MOTION_DDOT":0},{"OBJECT_NAME":"STARLINK-5876","OBJECT_ID":"2023-058E","EPOCH":"2025-08-17T13:50:02.608512","MEAN_MOTION":15.01263948,"ECCENTRICITY":0.0002912,"INCLINATION":97.6519,"RA_OF_ASC_NODE":230.2584,"ARG_OF_PERICENTER":178.8155,"MEAN_ANOMALY":181.3076,"EPHEMERIS_TYPE":0,"CLASSIFICATION_TYPE":"U","NORAD_CAT_ID":56321,"ELEMENT_SET_NO":999,"REV_AT_EPOCH":12715,"BSTAR":-0.0020003,"MEAN_MOTION_DOT":-0.00025663,"MEAN_MOTION_DDOT":0},{"OBJECT_NAME":"STARLINK-6033","OBJECT_ID":"2023-058F","EPOCH":"2025-08-17T14:03:21.269376","MEAN_MOTION":15.01257347,"ECCENTRICITY":0.00022,"INCLINATION":97.653,"RA_OF_ASC_NODE":230.2503,"ARG_OF_PERICENTER":129.094,"MEAN_ANOMALY":231.048,"EPHEMERIS_TYPE":0,"CLASSIFICATION_TYPE":"U","NORAD_CAT_ID":56322,"ELEMENT_SET_NO":999,"REV_AT_EPOCH":12715,"BSTAR":-3.8566e-5,"MEAN_MOTION_DOT":-5.54e-6,"MEAN_MOTION_DDOT":0},{"OBJECT_NAME":"STARLINK-6035","OBJECT_ID":"2023-058G","EPOCH":"2025-08-17T13:52:41.153376","MEAN_MOTION":15.01258873,"ECCENTRICITY":0.0002833,"INCLINATION":97.6533,"RA_OF_ASC_NODE":230.2573,"ARG_OF_PERICENTER":149.8552,"MEAN_ANOMALY":210.2835,"EPHEMERIS_TYPE":0,"CLASSIFICATION_TYPE":"U","NORAD_CAT_ID":56323,"ELEMENT_SET_NO":999,"REV_AT_EPOCH":12714,"BSTAR":8.2263e-6,"MEAN_MOTION_DOT":4.7e-7,"MEAN_MOTION_DDOT":0},{"OBJECT_NAME":"STARLINK-6034","OBJECT_ID":"2023-058H","EPOCH":"2025-08-17T13:55:21.144576","MEAN_MOTION":15.01258456,"ECCENTRICITY":0.0002072,"INCLINATION":97.6532,"RA_OF_ASC_NODE":230.2552,"ARG_OF_PERICENTER":141.213,"MEAN_ANOMALY":218.9243,"EPHEMERIS_TYPE":0,"CLASSIFICATION_TYPE":"U","NORAD_CAT_ID":56324,"ELEMENT_SET_NO":999,"REV_AT_EPOCH":12715,"BSTAR":1.6482e-6,"MEAN_MOTION_DOT":-3.8e-7,"MEAN_MOTION_DDOT":0},{"OBJECT_NAME":"STARLINK-5981","OBJECT_ID":"2023-058J","EPOCH":"2025-08-17T13:42:01.415808","MEAN_MOTION":15.01258348,"ECCENTRICITY":0.0002692,"INCLINATION":97.6542,"RA_OF_ASC_NODE":230.2666,"ARG_OF_PERICENTER":123.5937,"MEAN_ANOMALY":236.5544,"EPHEMERIS_TYPE":0,"CLASSIFICATION_TYPE":"U","NORAD_CAT_ID":56325,"ELEMENT_SET_NO":999,"REV_AT_EPOCH":12750,"BSTAR":1.4213e-5,"MEAN_MOTION_DOT":1.24e-6,"MEAN_MOTION_DDOT":0},{"OBJECT_NAME":"STARLINK-5980","OBJECT_ID":"2023-058K","EPOCH":"2025-08-17T10:42:26.614368","MEAN_MOTION":15.02192237,"ECCENTRICITY":0.000197,"INCLINATION":97.6535,"RA_OF_ASC_NODE":230.1248,"ARG_OF_PERICENTER":335.5072,"MEAN_ANOMALY":24.6059,"EPHEMERIS_TYPE":0,"CLASSIFICATION_TYPE":"U","NORAD_CAT_ID":56326,"ELEMENT_SET_NO":999,"REV_AT_EPOCH":12713,"BSTAR":0.0092279,"MEAN_MOTION_DOT":0.00123552,"MEAN_MOTION_DDOT":0},{"OBJECT_NAME":"STARLINK-5997","OBJECT_ID":"2023-058L","EPOCH":"2025-08-17T10:21:49.343040","MEAN_MOTION":15.01635052,"ECCENTRICITY":0.0003085,"INCLINATION":97.6556,"RA_OF_ASC_NODE":230.1447,"ARG_OF_PERICENTER":75.4301,"MEAN_ANOMALY":284.7265,"EPHEMERIS_TYPE":0,"CLASSIFICATION_TYPE":"U","NORAD_CAT_ID":56327,"ELEMENT_SET_NO":999,"REV_AT_EPOCH":12748,"BSTAR":0.0035383,"MEAN_MOTION_DOT":0.00046141,"MEAN_MOTION_DDOT":0}]
