STARLINK-30104          
1 56300U 23056Q   25229.30505433 -.00001892  00000+0 -12505-3 0  9990
2 56300  43.0026 240.4726 0001195 271.1743  88.8962 15.02522063129343
STARLINK-30101          
1 56301U 23056R   25229.33500856 -.00000501  00000+0 -21988-4 0  9990
2 56301  43.0017 240.6774 0001414 290.6844  69.3847 15.02540720129347
STARLINK-30111          
1 56302U 23056S   25229.39481433  .00000143  00000+0  25630-4 0  9994
2 56302  43.0020 240.2032 0001219 279.0591  81.0113 15.02534802129350
STARLINK-30099          
1 56304U 23056U   25229.32500225  .00000464  00000+0  49441-4 0  9992
2 56304  43.0020 240.5278 0001454 281.1768  78.8911 15.02533806129340
STARLINK-30094          
1 56305U 23056V   25229.38815114 -.00009083  00000+0 -65769-3 0  9993
2 56305  43.0024 240.1305 0001714 262.8641  97.2006 15.02562212129351
STARLINK-30112          
1 56306U 23056W   25229.33166826 -.00000951  00000+0 -55310-4 0  9995
2 56306  43.0019 240.5873 0001267 278.6234  81.4465 15.02535210129347
STARLINK-6038           
1 56317U 23058A   25229.58751531  .00000058  00000+0  90693-5 0  9999
2 56317  97.6521 230.2507 0001375 109.8294 250.3078 15.01251890127155
STARLINK-5954           
1 56318U 23058B   25229.58380928 -.00000615  00000+0 -43305-4 0  9996
2 56318  97.6531 230.2517 0001300 120.1277 240.0076 15.01256991127154
STARLINK-6039           
1 56319U 23058C   25229.58196032 -.00000831  00000+0 -60095-4 0  9993
2 56319  97.6531 230.2534 0001771 145.9464 214.1874 15.01255092127158
STARLINK-5988           
1 56320U 23058D   25229.58777632  .00000130  00000+0  14694-4 0  9990
2 56320  97.6530 230.2520 0002298 142.0587 218.0799 15.01261344127160
STARLINK-5876           
1 56321U 23058E   25229.57641908 -.00025663  00000+0 -20003-2 0  9995
2 56321  97.6519 230.2584 0002912 178.8155 181.3076 15.01263948127150
STARLINK-6033           
1 56322U 23058F   25229.58566284 -.00000554  00000+0 -38566-4 0  9997
2 56322  97.6530 230.2503 0002200 129.0940 231.0480 15.01257347127153
STARLINK-6035           
1 56323U 23058G   25229.57825409  .00000047  00000+0  82263-5 0  9993
2 56323  97.6533 230.2573 0002833 149.8552 210.2835 15.01258873127142
STARLINK-6034           
1 56324U 23058H   25229.58010584 -.00000038  00000+0  16482-5 0  9996
2 56324  97.6532 230.2552 0002072 141.2130 218.9243 15.01258456127158
STARLINK-5981           
1 56325U 23058J   25229.57084972  .00000124  00000+0  14213-4 0  9992
2 56325  97.6542 230.2666 0002692 123.5937 236.5544 15.01258348127501
STARLINK-5980           
1 56326U 23058K   25229.44614137  .00123552  00000+0  92279-2 0  9998
2 56326  97.6535 230.1248 0001970 335.5072  24.6059 15.02192237127133
STARLINK-5997           
1 56327U 23058L   25229.43182110  .00046141  00000+0  35383-2 0  9990
2 56327  97.6556 230.1447 0003085  75.4301 284.7265 15.01635052127484
